{"type": "FeatureCollection", "features": [ {"type": "Feature", "properties": {"norad_id": 67009, "name": "STARLINK-36118", "group": "last-30-days", "lat": -49.35993503680865, "lon": 145.0785848464763, "alt_km": 304.7103074014349, "timestamp": "2025-12-20T22:39:09.409638+00:00", "meta": {"OBJECT_NAME": "STARLINK-36118", "OBJECT_ID": "2025-293G", "EPOCH": "2025-12-20T14:00:03.000384", "MEAN_MOTION": 15.91551107, "ECCENTRICITY": 0.00039789, "INCLINATION": 69.9939, "RA_OF_ASC_NODE": 301.0046, "ARG_OF_PERICENTER": 268.1967, "MEAN_ANOMALY": 61.3769, "EPHEMERIS_TYPE": 0, "CLASSIFICATION_TYPE": "U", "NORAD_CAT_ID": 67009, "ELEMENT_SET_NO": 999, "REV_AT_EPOCH": 137, "BSTAR": -0.0039337123, "MEAN_MOTION_DOT": -0.01273404, "MEAN_MOTION_DDOT": 0.00047010771}, "tle": {"line1": "1 67009U 25293G   25354.58336806 -.01273404  47011-3 -39337-2 0  9997", "line2": "2 67009  69.9939 301.0046 0003978 268.1967  61.3769 15.91551107  1377"}}, "geometry": {"type": "Point", "coordinates": [145.0785848464763, -49.35993503680865]}}, {"type": "Feature", "properties": {"norad_id": 67010, "name": "STARLINK-36189", "group": "last-30-days", "lat": -53.343400670643256, "lon": 149.2678420336999, "alt_km": 304.48965505243723, "timestamp": "2025-12-20T22:39:09.409647+00:00", "meta": {"OBJECT_NAME": "STARLINK-36189", "OBJECT_ID": "2025-293H", "EPOCH": "2025-12-20T14:00:03.000384", "MEAN_MOTION": 15.9163148, "ECCENTRICITY": 0.00039856, "INCLINATION": 69.9939, "RA_OF_ASC_NODE": 300.999, "ARG_OF_PERICENTER": 267.1397, "MEAN_ANOMALY": 67.1096, "EPHEMERIS_TYPE": 0, "CLASSIFICATION_TYPE": "U", "NORAD_CAT_ID": 67010, "ELEMENT_SET_NO": 999, "REV_AT_EPOCH": 143, "BSTAR": -0.0039788952, "MEAN_MOTION_DOT": -0.01293162, "MEAN_MOTION_DDOT": 0.00048403746}, "tle": {"line1": "1 67010U 25293H   25354.58336806 -.01293162  48404-3 -39789-2 0  9990", "line2": "2 67010  69.9939 300.9990 0003985 267.1397  67.1096 15.91631480  1436"}}, "geometry": {"type": "Point", "coordinates": [149.2678420336999, -53.343400670643256]}}, {"type": "Feature", "properties": {"norad_id": 67011, "name": "STARLINK-36167", "group": "last-30-days", "lat": -51.089979406894116, "lon": 146.79016521458402, "alt_km": 304.5571783917858, "timestamp": "2025-12-20T22:39:09.409656+00:00", "meta": {"OBJECT_NAME": "STARLINK-36167", "OBJECT_ID": "2025-293J", "EPOCH": "2025-12-20T14:00:03.000384", "MEAN_MOTION": 15.91590411, "ECCENTRICITY": 0.00040268, "INCLINATION": 69.9934, "RA_OF_ASC_NODE": 301.0016, "ARG_OF_PERICENTER": 266.8594, "MEAN_ANOMALY": 64.7178, "EPHEMERIS_TYPE": 0, "CLASSIFICATION_TYPE": "U", "NORAD_CAT_ID": 67011, "ELEMENT_SET_NO": 999, "REV_AT_EPOCH": 137, "BSTAR": -0.0039563382, "MEAN_MOTION_DOT": -0.01283241, "MEAN_MOTION_DDOT": 0.00047701515}, "tle": {"line1": "1 67011U 25293J   25354.58336806 -.01283241  47702-3 -39563-2 0  9998", "line2": "2 67011  69.9934 301.0016 0004026 266.8594  64.7178 15.91590411  1370"}}, "geometry": {"type": "Point", "coordinates": [146.79016521458402, -51.089979406894116]}}, {"type": "Feature", "properties": {"norad_id": 67012, "name": "STARLINK-36175", "group": "last-30-days", "lat": -55.124632157564605, "lon": 151.47003036082623, "alt_km": 304.3914316075834, "timestamp": "2025-12-20T22:39:09.409665+00:00", "meta": {"OBJECT_NAME": "STARLINK-36175", "OBJECT_ID": "2025-293K", "EPOCH": "2025-12-20T14:00:03.000384", "MEAN_MOTION": 15.91668772, "ECCENTRICITY": 0.00040517, "INCLINATION": 69.9935, "RA_OF_ASC_NODE": 300.9961, "ARG_OF_PERICENTER": 269.0144, "MEAN_ANOMALY": 67.3919, "EPHEMERIS_TYPE": 0, "CLASSIFICATION_TYPE": "U", "NORAD_CAT_ID": 67012, "ELEMENT_SET_NO": 999, "REV_AT_EPOCH": 137, "BSTAR": -0.0039884685, "MEAN_MOTION_DOT": -0.01298736, "MEAN_MOTION_DDOT": 0.00048807348}, "tle": {"line1": "1 67012U 25293K   25354.58336806 -.01298736  48807-3 -39885-2 0  9998", "line2": "2 67012  69.9935 300.9961 0004051 269.0144  67.3919 15.91668772  1371"}}, "geometry": {"type": "Point", "coordinates": [151.47003036082623, -55.124632157564605]}}, {"type": "Feature", "properties": {"norad_id": 67013, "name": "STARLINK-35856", "group": "last-30-days", "lat": -57.23493951274806, "lon": 154.42926685054928, "alt_km": 304.27351927669497, "timestamp": "2025-12-20T22:39:09.409676+00:00", "meta": {"OBJECT_NAME": "STARLINK-35856", "OBJECT_ID": "2025-293L", "EPOCH": "2025-12-20T14:00:03.000384", "MEAN_MOTION": 15.91709069, "ECCENTRICITY": 0.00040529, "INCLINATION": 69.9934, "RA_OF_ASC_NODE": 300.9927, "ARG_OF_PERICENTER": 268.4245, "MEAN_ANOMALY": 70.6146, "EPHEMERIS_TYPE": 0, "CLASSIFICATION_TYPE": "U", "NORAD_CAT_ID": 67013, "ELEMENT_SET_NO": 999, "REV_AT_EPOCH": 137, "BSTAR": -0.0040099902, "MEAN_MOTION_DOT": -0.01308354, "MEAN_MOTION_DDOT": 0.00049496045}, "tle": {"line1": "1 67013U 25293L   25354.58336806 -.01308354  49496-3 -40100-2 0  9994", "line2": "2 67013  69.9934 300.9927 0004052 268.4245  70.6146 15.91709069  1373"}}, "geometry": {"type": "Point", "coordinates": [154.42926685054928, -57.23493951274806]}}, {"type": "Feature", "properties": {"norad_id": 67014, "name": "STARLINK-36207", "group": "last-30-days", "lat": -59.13622090769683, "lon": 157.51068576978, "alt_km": 304.2193829268381, "timestamp": "2025-12-20T22:39:09.409685+00:00", "meta": {"OBJECT_NAME": "STARLINK-36207", "OBJECT_ID": "2025-293M", "EPOCH": "2025-12-20T14:00:03.000384", "MEAN_MOTION": 15.91747811, "ECCENTRICITY": 0.00040243, "INCLINATION": 69.9938, "RA_OF_ASC_NODE": 300.99, "ARG_OF_PERICENTER": 270.3341, "MEAN_ANOMALY": 71.1633, "EPHEMERIS_TYPE": 0, "CLASSIFICATION_TYPE": "U", "NORAD_CAT_ID": 67014, "ELEMENT_SET_NO": 999, "REV_AT_EPOCH": 143, "BSTAR": -0.0040203734, "MEAN_MOTION_DOT": -0.01314282, "MEAN_MOTION_DDOT": 0.00049929662}, "tle": {"line1": "1 67014U 25293M   25354.58336806 -.01314282  49930-3 -40204-2 0  9990", "line2": "2 67014  69.9938 300.9900 0004024 270.3341  71.1633 15.91747811  1438"}}, "geometry": {"type": "Point", "coordinates": [157.51068576978, -59.13622090769683]}}, {"type": "Feature", "properties": {"norad_id": 67015, "name": "STARLINK-36093", "group": "last-30-days", "lat": -62.63412141480852, "lon": 164.68442077439474, "alt_km": 303.99101840976437, "timestamp": "2025-12-20T22:39:09.409694+00:00", "meta": {"OBJECT_NAME": "STARLINK-36093", "OBJECT_ID": "2025-293N", "EPOCH": "2025-12-20T14:00:03.000384", "MEAN_MOTION": 15.91813293, "ECCENTRICITY": 0.00039679, "INCLINATION": 69.9934, "RA_OF_ASC_NODE": 300.984, "ARG_OF_PERICENTER": 266.5831, "MEAN_ANOMALY": 79.7713, "EPHEMERIS_TYPE": 0, "CLASSIFICATION_TYPE": "U", "NORAD_CAT_ID": 67015, "ELEMENT_SET_NO": 999, "REV_AT_EPOCH": 137, "BSTAR": -0.004006057, "MEAN_MOTION_DOT": -0.01313995, "MEAN_MOTION_DDOT": 0.00049941948}, "tle": {"line1": "1 67015U 25293N   25354.58336806 -.01313995  49942-3 -40061-2 0  9995", "line2": "2 67015  69.9934 300.9840 0003967 266.5831  79.7713 15.91813293  1378"}}, "geometry": {"type": "Point", "coordinates": [164.68442077439474, -62.63412141480852]}}, {"type": "Feature", "properties": {"norad_id": 67016, "name": "STARLINK-36120", "group": "last-30-days", "lat": -60.823869448099764, "lon": 160.67903957551778, "alt_km": 304.0675637671302, "timestamp": "2025-12-20T22:39:09.409704+00:00", "meta": {"OBJECT_NAME": "STARLINK-36120", "OBJECT_ID": "2025-293P", "EPOCH": "2025-12-20T14:00:03.000384", "MEAN_MOTION": 15.91783291, "ECCENTRICITY": 0.00040172, "INCLINATION": 69.9936, "RA_OF_ASC_NODE": 300.9872, "ARG_OF_PERICENTER": 267.2169, "MEAN_ANOMALY": 76.5528, "EPHEMERIS_TYPE": 0, "CLASSIFICATION_TYPE": "U", "NORAD_CAT_ID": 67016, "ELEMENT_SET_NO": 999, "REV_AT_EPOCH": 137, "BSTAR": -0.0040248186, "MEAN_MOTION_DOT": -0.01318096, "MEAN_MOTION_DDOT": 0.00050214972}, "tle": {"line1": "1 67016U 25293P   25354.58336806 -.01318096  50215-3 -40248-2 0  9995", "line2": "2 67016  69.9936 300.9872 0004017 267.2169  76.5528 15.91783291  1378"}}, "geometry": {"type": "Point", "coordinates": [160.67903957551778, -60.823869448099764]}}, {"type": "Feature", "properties": {"norad_id": 67017, "name": "STARLINK-35498", "group": "last-30-days", "lat": -64.20332293878666, "lon": 168.8607883099592, "alt_km": 303.8745283041726, "timestamp": "2025-12-20T22:39:09.409713+00:00", "meta": {"OBJECT_NAME": "STARLINK-35498", "OBJECT_ID": "2025-293Q", "EPOCH": "2025-12-20T14:00:03.000384", "MEAN_MOTION": 15.91851936, "ECCENTRICITY": 0.0003999, "INCLINATION": 69.9932, "RA_OF_ASC_NODE": 300.9811, "ARG_OF_PERICENTER": 267.3076, "MEAN_ANOMALY": 81.4438, "EPHEMERIS_TYPE": 0, "CLASSIFICATION_TYPE": "U", "NORAD_CAT_ID": 67017, "ELEMENT_SET_NO": 999, "REV_AT_EPOCH": 156, "BSTAR": -0.0040150866, "MEAN_MOTION_DOT": -0.01319537, "MEAN_MOTION_DDOT": 0.00050350566}, "tle": {"line1": "1 67017U 25293Q   25354.58336806 -.01319537  50351-3 -40151-2 0  9991", "line2": "2 67017  69.9932 300.9811 0003999 267.3076  81.4438 15.91851936  1562"}}, "geometry": {"type": "Point", "coordinates": [168.8607883099592, -64.20332293878666]}}, {"type": "Feature", "properties": {"norad_id": 67018, "name": "STARLINK-36106", "group": "last-30-days", "lat": -65.65053488423068, "lon": 173.5567641431281, "alt_km": 303.7637612919207, "timestamp": "2025-12-20T22:39:09.409723+00:00", "meta": {"OBJECT_NAME": "STARLINK-36106", "OBJECT_ID": "2025-293R", "EPOCH": "2025-12-20T14:00:03.000384", "MEAN_MOTION": 15.91889562, "ECCENTRICITY": 0.00040249, "INCLINATION": 69.9931, "RA_OF_ASC_NODE": 300.9779, "ARG_OF_PERICENTER": 268.1639, "MEAN_ANOMALY": 83.006, "EPHEMERIS_TYPE": 0, "CLASSIFICATION_TYPE": "U", "NORAD_CAT_ID": 67018, "ELEMENT_SET_NO": 999, "REV_AT_EPOCH": 148, "BSTAR": -0.0040220682, "MEAN_MOTION_DOT": -0.01324359, "MEAN_MOTION_DDOT": 0.00050709417}, "tle": {"line1": "1 67018U 25293R   25354.58336806 -.01324359  50709-3 -40221-2 0  9995", "line2": "2 67018  69.9931 300.9779 0004024 268.1639  83.0060 15.91889562  1485"}}, "geometry": {"type": "Point", "coordinates": [173.5567641431281, -65.65053488423068]}}]}